ORBCOMM FM05            
1 25117U 97084F   24176.40545546  .00001494  00000+0  48467-3 0  9996
2 25117  45.0166 282.1877 0004488 233.8357 126.2079 14.42970907388874
ORBCOMM FM06            
1 25118U 97084G   24176.45558490  .00001776  00000+0  56746-3 0  9996
2 25118  45.0152 282.0928 0003842 241.5594 242.2884 14.43042613389798
ORBCOMM FM07            
1 25119U 97084H   24176.42575775  .00001592  00000+0  51397-3 0  9992
2 25119  45.0153 282.7997 0005085 225.7478 134.2956 14.42945216389788
ORBCOMM FM03            
1 25158U 98007B   24176.77778951  .00001075  00000+0  44071-3 0  9997
2 25158 107.9705 122.4127 0045943 154.1584 206.1862 14.32343079372827
ORBCOMM FM17            
1 25413U 98046A   24176.38165597  .00000965  00000+0  39786-3 0  9991
2 25413  44.9936 144.0722 0002813 263.4715  96.5811 14.33306592351807
ORBCOMM FM18            
1 25414U 98046B   24176.84530784  .00001522  00000+0  56572-3 0  9999
2 25414  44.9949  68.0108 0003978 291.2459  68.7963 14.36126959352835
ORBCOMM FM19            
1 25415U 98046C   24176.89703701  .00001460  00000+0  54649-3 0  9990
2 25415  44.9959  69.2388 0002734 286.9631 129.0894 14.35961683352803
